UNKNOWN                 
1 87587U          26017.77604735  .00000170  00000+0  62081-4 0  9998
2 87587  74.0240  36.2539 0019203  62.0207 298.2888 14.40081457638998
UNKNOWN                 
1 87590U          26015.06056441  .00000393  00000+0  24490-3 0  9995
2 87590  98.7840  56.4145 0027056 188.1189 202.9840 14.10375418158944
UNKNOWN                 
1 87616U          26016.63811525 -.00000299  00000+0 -82271-3 0  9998
2 87616  66.0362  79.9355 0627257 124.1380  28.2878 12.46909907540583
UNKNOWN                 
1 87624U          26017.78761164  .00003755  00000+0  58503-3 0  9996
2 87624  98.6843 322.5337 0098089 134.8747 226.0476 14.70403063585575
UNKNOWN                 
1 87650U          26017.25967567  .00012651  00000+0  24786-2 0  9992
2 87650 100.2687 206.0769 0031183 179.0614 181.0644 14.62657129 84959
UNKNOWN                 
1 87672U          26016.17412565  .00001246  00000+0  51196-3 0  9993
2 87672  70.8575 292.2662 0061268 223.2996 136.3309 14.28009933629370
UNKNOWN                 
1 87681U          26018.25745302  .00000693  00000+0  78868-3 0  9992
2 87681  66.7377  12.1751 0150331 138.1358 223.1323 13.71204579606846
UNKNOWN                 
1 87690U          26018.40816433  .00006447  00000+0  96199-3 0  9993
2 87690  65.7924 258.6476 0579178  28.6412 334.5212 14.01003320612512
UNKNOWN                 
1 87706U          26017.99142999  .00004480  00000+0  78429-3 0  9994
2 87706  98.6723 208.5274 0104665 155.0717 358.5549 14.64822001583824
UNKNOWN                 
1 87725U          26017.99062616  .00051445  00000+0  40442-2 0  9998
2 87725  82.8642 222.6873 0014339 299.9807  59.9995 15.00547696639350
UNKNOWN                 
1 87730U          26017.25883018  .00000090  00000+0  79487-4 0  9993
2 87730  82.9430 207.8207 0028784 264.7858  95.0012 13.74512486590213
UNKNOWN                 
1 87737U          26017.42704812  .00000042  00000+0  86937-4 0  9998
2 87737  99.3718 253.4451 0134038  96.6232 265.0192 13.72346979608754
