CCSDS_OMM_VERS = 2.0
CREATION_DATE  = 
ORIGINATOR     = 

OBJECT_NAME    = UNKNOWN
OBJECT_ID      = 
CENTER_NAME    = EARTH
REF_FRAME      = TEME
TIME_SYSTEM    = UTC
MEAN_ELEMENT_THEORY = SGP/SGP4

EPOCH          = 2026-01-17T18:37:30.491040
MEAN_MOTION    = 14.40081457
ECCENTRICITY   = .0019203
INCLINATION    = 74.0240
RA_OF_ASC_NODE = 36.2539
ARG_OF_PERICENTER = 62.0207
MEAN_ANOMALY   = 298.2888

EPHEMERIS_TYPE = 0
CLASSIFICATION_TYPE = U
NORAD_CAT_ID   = 87587
ELEMENT_SET_NO = 999
REV_AT_EPOCH   = 63899
BSTAR          = .62081E-4
MEAN_MOTION_DOT = .17E-5
MEAN_MOTION_DDOT = 0

CCSDS_OMM_VERS = 2.0
CREATION_DATE  = 
ORIGINATOR     = 

OBJECT_NAME    = UNKNOWN
OBJECT_ID      = 
CENTER_NAME    = EARTH
REF_FRAME      = TEME
TIME_SYSTEM    = UTC
MEAN_ELEMENT_THEORY = SGP/SGP4

EPOCH          = 2026-01-15T01:27:12.765024
MEAN_MOTION    = 14.10375418
ECCENTRICITY   = .0027056
INCLINATION    = 98.7840
RA_OF_ASC_NODE = 56.4145
ARG_OF_PERICENTER = 188.1189
MEAN_ANOMALY   = 202.9840

EPHEMERIS_TYPE = 0
CLASSIFICATION_TYPE = U
NORAD_CAT_ID   = 87590
ELEMENT_SET_NO = 999
REV_AT_EPOCH   = 15894
BSTAR          = .2449E-3
MEAN_MOTION_DOT = .393E-5
MEAN_MOTION_DDOT = 0

CCSDS_OMM_VERS = 2.0
CREATION_DATE  = 
ORIGINATOR     = 

OBJECT_NAME    = UNKNOWN
OBJECT_ID      = 
CENTER_NAME    = EARTH
REF_FRAME      = TEME
TIME_SYSTEM    = UTC
MEAN_ELEMENT_THEORY = SGP/SGP4

EPOCH          = 2026-01-16T15:18:53.157600
MEAN_MOTION    = 12.46909907
ECCENTRICITY   = .0627257
INCLINATION    = 66.0362
RA_OF_ASC_NODE = 79.9355
ARG_OF_PERICENTER = 124.1380
MEAN_ANOMALY   = 28.2878

EPHEMERIS_TYPE = 0
CLASSIFICATION_TYPE = U
NORAD_CAT_ID   = 87616
ELEMENT_SET_NO = 999
REV_AT_EPOCH   = 54058
BSTAR          = -.82271E-3
MEAN_MOTION_DOT = -.299E-5
MEAN_MOTION_DDOT = 0

CCSDS_OMM_VERS = 2.0
CREATION_DATE  = 
ORIGINATOR     = 

OBJECT_NAME    = UNKNOWN
OBJECT_ID      = 
CENTER_NAME    = EARTH
REF_FRAME      = TEME
TIME_SYSTEM    = UTC
MEAN_ELEMENT_THEORY = SGP/SGP4

EPOCH          = 2026-01-17T18:54:09.645696
MEAN_MOTION    = 14.70403063
ECCENTRICITY   = .0098089
INCLINATION    = 98.6843
RA_OF_ASC_NODE = 322.5337
ARG_OF_PERICENTER = 134.8747
MEAN_ANOMALY   = 226.0476

EPHEMERIS_TYPE = 0
CLASSIFICATION_TYPE = U
NORAD_CAT_ID   = 87624
ELEMENT_SET_NO = 999
REV_AT_EPOCH   = 58557
BSTAR          = .58503E-3
MEAN_MOTION_DOT = .3755E-4
MEAN_MOTION_DDOT = 0

CCSDS_OMM_VERS = 2.0
CREATION_DATE  = 
ORIGINATOR     = 

OBJECT_NAME    = UNKNOWN
OBJECT_ID      = 
CENTER_NAME    = EARTH
REF_FRAME      = TEME
TIME_SYSTEM    = UTC
MEAN_ELEMENT_THEORY = SGP/SGP4

EPOCH          = 2026-01-17T06:13:55.977888
MEAN_MOTION    = 14.62657129
ECCENTRICITY   = .0031183
INCLINATION    = 100.2687
RA_OF_ASC_NODE = 206.0769
ARG_OF_PERICENTER = 179.0614
MEAN_ANOMALY   = 181.0644

EPHEMERIS_TYPE = 0
CLASSIFICATION_TYPE = U
NORAD_CAT_ID   = 87650
ELEMENT_SET_NO = 999
REV_AT_EPOCH   = 8495
BSTAR          = .24786E-2
MEAN_MOTION_DOT = .12651E-3
MEAN_MOTION_DDOT = 0

CCSDS_OMM_VERS = 2.0
CREATION_DATE  = 
ORIGINATOR     = 

OBJECT_NAME    = UNKNOWN
OBJECT_ID      = 
CENTER_NAME    = EARTH
REF_FRAME      = TEME
TIME_SYSTEM    = UTC
MEAN_ELEMENT_THEORY = SGP/SGP4

EPOCH          = 2026-01-16T04:10:44.456160
MEAN_MOTION    = 14.28009933
ECCENTRICITY   = .0061268
INCLINATION    = 70.8575
RA_OF_ASC_NODE = 292.2662
ARG_OF_PERICENTER = 223.2996
MEAN_ANOMALY   = 136.3309

EPHEMERIS_TYPE = 0
CLASSIFICATION_TYPE = U
NORAD_CAT_ID   = 87672
ELEMENT_SET_NO = 999
REV_AT_EPOCH   = 62937
BSTAR          = .51196E-3
MEAN_MOTION_DOT = .1246E-4
MEAN_MOTION_DDOT = 0

CCSDS_OMM_VERS = 2.0
CREATION_DATE  = 
ORIGINATOR     = 

OBJECT_NAME    = UNKNOWN
OBJECT_ID      = 
CENTER_NAME    = EARTH
REF_FRAME      = TEME
TIME_SYSTEM    = UTC
MEAN_ELEMENT_THEORY = SGP/SGP4

EPOCH          = 2026-01-18T06:10:43.940928
MEAN_MOTION    = 13.71204579
ECCENTRICITY   = .0150331
INCLINATION    = 66.7377
RA_OF_ASC_NODE = 12.1751
ARG_OF_PERICENTER = 138.1358
MEAN_ANOMALY   = 223.1323

EPHEMERIS_TYPE = 0
CLASSIFICATION_TYPE = U
NORAD_CAT_ID   = 87681
ELEMENT_SET_NO = 999
REV_AT_EPOCH   = 60684
BSTAR          = .78868E-3
MEAN_MOTION_DOT = .693E-5
MEAN_MOTION_DDOT = 0

CCSDS_OMM_VERS = 2.0
CREATION_DATE  = 
ORIGINATOR     = 

OBJECT_NAME    = UNKNOWN
OBJECT_ID      = 
CENTER_NAME    = EARTH
REF_FRAME      = TEME
TIME_SYSTEM    = UTC
MEAN_ELEMENT_THEORY = SGP/SGP4

EPOCH          = 2026-01-18T09:47:45.398112
MEAN_MOTION    = 14.01003320
ECCENTRICITY   = .0579178
INCLINATION    = 65.7924
RA_OF_ASC_NODE = 258.6476
ARG_OF_PERICENTER = 28.6412
MEAN_ANOMALY   = 334.5212

EPHEMERIS_TYPE = 0
CLASSIFICATION_TYPE = U
NORAD_CAT_ID   = 87690
ELEMENT_SET_NO = 999
REV_AT_EPOCH   = 61251
BSTAR          = .96199E-3
MEAN_MOTION_DOT = .6447E-4
MEAN_MOTION_DDOT = 0

CCSDS_OMM_VERS = 2.0
CREATION_DATE  = 
ORIGINATOR     = 

OBJECT_NAME    = UNKNOWN
OBJECT_ID      = 
CENTER_NAME    = EARTH
REF_FRAME      = TEME
TIME_SYSTEM    = UTC
MEAN_ELEMENT_THEORY = SGP/SGP4

EPOCH          = 2026-01-17T23:47:39.551136
MEAN_MOTION    = 14.64822001
ECCENTRICITY   = .0104665
INCLINATION    = 98.6723
RA_OF_ASC_NODE = 208.5274
ARG_OF_PERICENTER = 155.0717
MEAN_ANOMALY   = 358.5549

EPHEMERIS_TYPE = 0
CLASSIFICATION_TYPE = U
NORAD_CAT_ID   = 87706
ELEMENT_SET_NO = 999
REV_AT_EPOCH   = 58382
BSTAR          = .78429E-3
MEAN_MOTION_DOT = .448E-4
MEAN_MOTION_DDOT = 0

CCSDS_OMM_VERS = 2.0
CREATION_DATE  = 
ORIGINATOR     = 

OBJECT_NAME    = UNKNOWN
OBJECT_ID      = 
CENTER_NAME    = EARTH
REF_FRAME      = TEME
TIME_SYSTEM    = UTC
MEAN_ELEMENT_THEORY = SGP/SGP4

EPOCH          = 2026-01-17T23:46:30.100224
MEAN_MOTION    = 15.00547696
ECCENTRICITY   = .0014339
INCLINATION    = 82.8642
RA_OF_ASC_NODE = 222.6873
ARG_OF_PERICENTER = 299.9807
MEAN_ANOMALY   = 59.9995

EPHEMERIS_TYPE = 0
CLASSIFICATION_TYPE = U
NORAD_CAT_ID   = 87725
ELEMENT_SET_NO = 999
REV_AT_EPOCH   = 63935
BSTAR          = .40442E-2
MEAN_MOTION_DOT = .51445E-3
MEAN_MOTION_DDOT = 0

CCSDS_OMM_VERS = 2.0
CREATION_DATE  = 
ORIGINATOR     = 

OBJECT_NAME    = UNKNOWN
OBJECT_ID      = 
CENTER_NAME    = EARTH
REF_FRAME      = TEME
TIME_SYSTEM    = UTC
MEAN_ELEMENT_THEORY = SGP/SGP4

EPOCH          = 2026-01-17T06:12:42.927552
MEAN_MOTION    = 13.74512486
ECCENTRICITY   = .0028784
INCLINATION    = 82.9430
RA_OF_ASC_NODE = 207.8207
ARG_OF_PERICENTER = 264.7858
MEAN_ANOMALY   = 95.0012

EPHEMERIS_TYPE = 0
CLASSIFICATION_TYPE = U
NORAD_CAT_ID   = 87730
ELEMENT_SET_NO = 999
REV_AT_EPOCH   = 59021
BSTAR          = .79487E-4
MEAN_MOTION_DOT = .9E-6
MEAN_MOTION_DDOT = 0

CCSDS_OMM_VERS = 2.0
CREATION_DATE  = 
ORIGINATOR     = 

OBJECT_NAME    = UNKNOWN
OBJECT_ID      = 
CENTER_NAME    = EARTH
REF_FRAME      = TEME
TIME_SYSTEM    = UTC
MEAN_ELEMENT_THEORY = SGP/SGP4

EPOCH          = 2026-01-17T10:14:56.957568
MEAN_MOTION    = 13.72346979
ECCENTRICITY   = .0134038
INCLINATION    = 99.3718
RA_OF_ASC_NODE = 253.4451
ARG_OF_PERICENTER = 96.6232
MEAN_ANOMALY   = 265.0192

EPHEMERIS_TYPE = 0
CLASSIFICATION_TYPE = U
NORAD_CAT_ID   = 87737
ELEMENT_SET_NO = 999
REV_AT_EPOCH   = 60875
BSTAR          = .86937E-4
MEAN_MOTION_DOT = .42E-6
MEAN_MOTION_DDOT = 0

